STARLINK-31610          
1 59473U 24068U   26068.28991497 -.00000914  00000+0 -23711-4 0  9992
2 59473  43.0045  36.5943 0000973 265.7582  94.3159 15.27581319108462
FLOCK 4G-1              
1 62666U 25009BK  26068.75951132  .00013534  00000+0  50654-3 0  9995
2 62666  97.4059 151.3158 0003180 323.1401  36.9619 15.27421081 63725
