[{"OBJECT_NAME":"STARLINK-31610","OBJECT_ID":"2024-068U","EPOCH":"2026-03-09T06:57:28.653408","MEAN_MOTION":15.27581319,"ECCENTRICITY":9.735e-5,"INCLINATION":43.0045,"RA_OF_ASC_NODE":36.5943,"ARG_OF_PERICENTER":265.7582,"MEAN_ANOMALY":94.3159,"EPHEMERIS_TYPE":0,"CLASSIFICATION_TYPE":"U","NORAD_CAT_ID":59473,"ELEMENT_SET_NO":999,"REV_AT_EPOCH":10846,"BSTAR":-2.3710822e-5,"MEAN_MOTION_DOT":-9.14e-6,"MEAN_MOTION_DDOT":0},{"OBJECT_NAME":"FLOCK 4G-1","OBJECT_ID":"2025-009BK","EPOCH":"2026-03-09T18:13:41.778912","MEAN_MOTION":15.27421081,"ECCENTRICITY":0.00031801,"INCLINATION":97.4059,"RA_OF_ASC_NODE":151.3158,"ARG_OF_PERICENTER":323.1401,"MEAN_ANOMALY":36.9619,"EPHEMERIS_TYPE":0,"CLASSIFICATION_TYPE":"U","NORAD_CAT_ID":62666,"ELEMENT_SET_NO":999,"REV_AT_EPOCH":6372,"BSTAR":0.00050653644,"MEAN_MOTION_DOT":0.00013534,"MEAN_MOTION_DDOT":0}]
